[{"OBJECT_NAME":"NANOSATC-BR1","OBJECT_ID":"2014-033Q","EPOCH":"2026-03-09T23:35:03.168384","MEAN_MOTION":15.28136801,"ECCENTRICITY":0.00046435,"INCLINATION":98.0845,"RA_OF_ASC_NODE":92.7804,"ARG_OF_PERICENTER":147.6715,"MEAN_ANOMALY":212.4808,"EPHEMERIS_TYPE":0,"CLASSIFICATION_TYPE":"U","NORAD_CAT_ID":40024,"ELEMENT_SET_NO":999,"REV_AT_EPOCH":63881,"BSTAR":0.00074295057,"MEAN_MOTION_DOT":0.00020336,"MEAN_MOTION_DDOT":0},{"OBJECT_NAME":"STARLINK-33628","OBJECT_ID":"2025-035R","EPOCH":"2026-03-09T06:33:36.323712","MEAN_MOTION":15.27586768,"ECCENTRICITY":0.00025938,"INCLINATION":42.9927,"RA_OF_ASC_NODE":149.6335,"ARG_OF_PERICENTER":157.1394,"MEAN_ANOMALY":202.9573,"EPHEMERIS_TYPE":0,"CLASSIFICATION_TYPE":"U","NORAD_CAT_ID":63067,"ELEMENT_SET_NO":999,"REV_AT_EPOCH":5966,"BSTAR":0.00084324549,"MEAN_MOTION_DOT":0.00023021,"MEAN_MOTION_DDOT":0}]
